satname,norad_id,inclination_deg,eccentricity,mean_motion_rev_per_day,perigee_km,apogee_km,l1,l2
STARLINK-1202,45183,53.1582,0.000163,15.30190454,474.12647116955304,476.3606732360904,1 45183U 20012F   26090.56896129  .00000720  00000+0  36454-4 0  9993,2 45183  53.1582 297.6244 0001630  91.1740 268.9447 15.30190454338302
STARLINK-1216,45185,53.158,0.000105,15.30194359,474.512308744459,475.95151621608056,1 45185U 20012H   26090.88604779  .00000817  00000+0  39708-4 0  9990,2 45185  53.1580 296.1295 0001050  91.1723 268.9398 15.30194359338290
STARLINK-1225,45187,53.1603,0.0001305,15.30199757,474.321432433876,476.11015751336436,1 45187U 20012K   26090.88295942 -.00004116  00000+0 -12692-3 0  9990,2 45187  53.1603 296.5824 0001305 110.1248 249.9893 15.30199757338338
STARLINK-1230,45189,53.1589,0.0001855,15.30185122,473.98818775606924,476.530797854899,1 45189U 20012M   26090.56588003  .00000664  00000+0  34575-4 0  9997,2 45189  53.1589 298.1175 0001855  89.3978 270.7235 15.30185122335517
STARLINK-1234,45190,53.0427,0.000702,15.66113638,365.3006320781924,374.77506956874913,1 45190U 20012N   26090.62623712  .00070356  00000+0  67141-3 0  9992,2 45190  53.0427 217.7036 0007020   1.3221 358.7811 15.66113638339318
STARLINK-1269,45197,53.1589,0.0001387,15.30189876,474.2947339003895,476.19586214986157,1 45197U 20012V   26090.88927175  .00000004  00000+0  12272-4 0  9996,2 45197  53.1589 296.4741 0001387  92.1927 267.9232 15.30189876338318
STARLINK-1154,45198,53.0464,0.000478,15.49660134,414.4710971077666,420.9679359375614,1 45198U 20012W   26090.76797050  .00123746  00000+0  21701-2 0  9995,2 45198  53.0464 264.3968 0004780 180.0075 180.0934 15.49660134338715
STARLINK-1199,45201,53.1583,0.0001974,15.30198037,473.868077734257,476.5737834452548,1 45201U 20012Z   26090.79323764  .00000764  00000+0  37923-4 0  9999,2 45201  53.1583 281.1640 0001974 103.7376 256.3844 15.30198037338541
STARLINK-1209,45206,53.0443,0.0009226,15.54951342,396.03845014862327,408.54970156979925,1 45206U 20012AE  26090.10531217  .00126143  00000+0  18264-2 0  9998,2 45206  53.0443 230.2118 0009226 342.3173  17.7515 15.54951342338242
STARLINK-1231,45212,53.039,0.0003522,15.22871218,494.7637133218004,499.6066902807497,1 45212U 20012AL  26089.95549907  .00054360  00000+0  22877-2 0  9997,2 45212  53.0390 277.9855 0003522 175.2348 184.8682 15.22871218338469
STARLINK-1271,45217,53.1576,0.0001325,15.30188165,474.3423329924053,476.1584806552146,1 45217U 20012AR  26090.79115714  .00000005  00000+0  12316-4 0  9997,2 45217  53.1576 281.3012 0001325  83.3749 276.7402 15.30188165338549
STARLINK-1191,45222,53.1587,0.0001251,15.32261589,468.2098538118862,469.92302411231503,1 45222U 20012AW  26090.73325425  .00079881  00000+0  25140-2 0  9994,2 45222  53.1587 256.3012 0001251 313.4770  46.6128 15.32261589338899
STARLINK-1212,45223,53.0452,0.0003788,15.56362427,395.6282369953624,400.7619862031097,1 45223U 20012AX  26090.91671296  .00157193  00000+0  21535-2 0  9992,2 45223  53.0452 242.7590 0003788 238.9314 172.0028 15.56362427  5918
STARLINK-1215,45225,53.1583,0.0001287,15.30197667,474.34000803779963,476.10406265349866,1 45225U 20012AZ  26090.73209227  .00002320  00000+0  90426-4 0  9993,2 45225  53.1583 255.9193 0001287  94.1587 265.9561 15.30197667338857
STARLINK-1221,45227,53.0656,0.0003726,15.42755853,435.44036063816566,440.51973106073274,1 45227U 20012BB  26090.61952474  .00021561  00000+0  49353-3 0  9991,2 45227  53.0656 165.6333 0003726  76.6958 283.4463 15.42755853340094
STARLINK-1222,45228,53.0541,0.0002465,15.50912928,412.38504973825457,415.7336025270388,1 45228U 20012BC  26090.66958414  .00033241  00000+0  56997-3 0  9997,2 45228  53.0541 237.3181 0002465 147.1159 213.0003 15.50912928339030
STARLINK-1226,45229,53.1585,0.0001252,15.37189214,453.57020938336973,455.28108306998547,1 45229U 20012BD  26090.91671296  .00060368  00000+0  16313-2 0  9993,2 45229  53.1585 255.0460 0001252  88.5823 213.2155 15.37189214  5901
STARLINK-1227,45230,53.1564,7.09e-05,15.37127803,454.12318547159066,455.0920686597092,1 45230U 20012BE  26090.74571957  .00019200  00000+0  52985-3 0  9994,2 45230  53.1564 256.0102 0000709  91.5783 268.5302 15.37127803338912
STARLINK-1246,45235,53.1595,0.0001221,15.30185884,474.4204181409441,476.0940170088761,1 45235U 20012BK  26090.57211870 -.00001375  00000+0 -34311-4 0  9995,2 45235  53.1595 297.6064 0001221  99.6659 260.4479 15.30185884338327
STARLINK-1270,45237,53.0462,0.0001488,15.50645117,413.8305592478064,415.8521496060839,1 45237U 20012BM  26090.71644522  .00114377  00000+0  19407-2 0  9999,2 45237  53.0462 242.0530 0001488 255.3634 104.7209 15.50645117339089
STARLINK-1279,45360,53.0417,0.0003085,15.61803518,380.36183035516297,384.53311097356345,1 45360U 20019A   26090.91671296  .00108803  00000+0  12224-2 0  9990,2 45360  53.0417 350.5205 0003085 190.4721  47.7743 15.61803518  5803
STARLINK-1301,45361,53.0437,8.75e-05,15.67747216,364.7592910662497,365.9394011768218,1 45361U 20019B   26090.03677728  .00084476  00000+0  75322-3 0  9998,2 45361  53.0437 359.1015 0000875 260.4708  99.6208 15.67747216333957
STARLINK-1262,45366,53.1574,0.0001892,15.29363042,476.4180875062257,479.0123419842839,1 45366U 20019G   26090.62963015  .00000384  00000+0  25661-4 0  9993,2 45366  53.1574  63.3251 0001892  95.9342 264.1874 15.29363042333111
STARLINK-1273,45367,53.0506,0.000411,15.47443889,421.41087711584896,427.00240358821793,1 45367U 20019H   26090.58174398  .00098123  00000+0  18673-2 0  9998,2 45367  53.0506  50.4273 0004110  86.3397 273.8080 15.47443889333289
STARLINK-1277,45369,53.0499,0.0006134,15.52751351,404.53401756992844,412.8601055966783,1 45369U 20019K   26090.91671296  .00125529  00000+0  19708-2 0  9997,2 45369  53.0499  45.8373 0006134  95.6619 196.8841 15.52751351  5950
STARLINK-1281,45370,53.1611,0.0001141,15.301913,474.4590757391461,476.02301660928333,1 45370U 20019L   26090.61720554 -.00001281  00000+0 -31154-4 0  9999,2 45370  53.1611  63.4370 0001141  89.7757 270.3375 15.30191300333112
STARLINK-1300,45374,53.1619,0.0001341,15.30202163,474.28957745236585,476.12764474526284,1 45374U 20019Q   26090.24743140  .00001161  00000+0  51319-4 0  9998,2 45374  53.1619  65.1600 0001341  94.6583 265.4571 15.30202163333059
STARLINK-1302,45375,53.0513,0.0003163,15.57795733,391.89589626935503,396.17997413336343,1 45375U 20019R   26090.91671296  .00135082  00000+0  17603-2 0  9991,2 45375  53.0513  44.2085 0003163  64.5247 191.9086 15.57795733  5783
STARLINK-1304,45376,53.0493,0.0003634,15.51856974,408.8371517490641,413.7717177838513,1 45376U 20019S   26090.11663228  .00119864  00000+0  19458-2 0  9990,2 45376  53.0493  46.6755 0003634  78.3105 281.8312 15.51856974333290
STARLINK-1305,45377,53.0436,0.0004518,15.57166554,392.80153477674594,398.92252029802785,1 45377U 20019T   26090.11183264  .00144105  00000+0  19196-2 0  9993,2 45377  53.0436  28.6680 0004518 156.2763 203.8457 15.57166554333550
STARLINK-1319,45379,53.0454,0.0002934,15.67985829,362.68685027906577,366.6435266032431,1 45379U 20019V   26090.87271259  .00075872  00000+0  67109-3 0  9992,2 45379  53.0454  20.5878 0002934 121.3323 238.7980 15.67985829333730
STARLINK-1266,45383,53.0516,0.0005124,15.48876678,416.52761512768575,423.4943571838985,1 45383U 20019Z   26090.81607381  .00107411  00000+0  19412-2 0  9998,2 45383  53.0516  27.2450 0005124  99.9968 260.1618 15.48876678333628
STARLINK-1267,45384,53.0502,8.16e-05,15.53814613,405.0470405257065,406.1541465009668,1 45384U 20019AA  26090.91671296  .00088784  00000+0  13505-2 0  9994,2 45384  53.0502  20.0783 0000816  40.2376  23.1427 15.53814613  5964
STARLINK-1272,45386,53.0444,0.0003499,15.60284601,384.46725701330706,389.20138394337755,1 45386U 20019AC  26090.91671296  .00093133  00000+0  11122-2 0  9993,2 45386  53.0444   1.7880 0003499 179.4789 137.6311 15.60284601  5934
STARLINK-1274,45387,53.0291,0.000219,15.50618502,413.4314052465297,416.406763811553,1 45387U 20019AD  26090.46789987  .00087550  00000+0  14938-2 0  9995,2 45387  53.0291 358.5602 0002190 267.4827  92.5930 15.50618502333994
STARLINK-1280,45388,53.0447,0.0001884,15.68404565,362.1948787313231,364.7351143636233,1 45388U 20019AE  26090.78399653  .00082751  00000+0  71855-3 0  9998,2 45388  53.0447  13.7392 0001884 139.3031 220.8126 15.68404565333801
STARLINK-1283,45389,53.0446,8.76e-05,15.63698743,376.39200201154836,377.57549916705193,1 45389U 20019AF  26090.05261282  .00069107  00000+0  72678-3 0  9999,2 45389  53.0446   5.9022 0000876 117.7833 242.3270 15.63698743333867
STARLINK-1284,45390,53.0481,0.000513,15.55769604,396.43926639728124,403.39354919367906,1 45390U 20019AG  26090.91671296  .00088092  00000+0  12471-2 0  9994,2 45390  53.0481  23.7305 0005130 108.5061 150.4194 15.55769604  5786
STARLINK-1297,45395,53.0468,0.0006071,15.58580608,387.6541683457435,395.8741823528535,1 45395U 20019AM  26090.91671296  .00124531  00000+0  15774-2 0  9997,2 45395  53.0468  23.0289 0006071 111.8595 290.4264 15.58580608  5987
STARLINK-1307,45397,53.0556,0.0002094,15.52272089,408.67248497604305,411.51539609393876,1 45397U 20019AP  26090.91671296 -.00042834  00000+0 -68916-3 0  9993,2 45397  53.0556  23.9796 0002094  88.6149 266.8894 15.52272089  5965
STARLINK-1255,45399,53.0417,0.0001401,15.56038199,398.1868951091792,400.0858871133696,1 45399U 20019AR  26090.87856094  .00117633  00000+0  16411-2 0  9991,2 45399  53.0417 355.6213 0001401 136.6892 223.4229 15.56038199333884
STARLINK-1260,45404,53.1598,0.0001453,15.31486268,470.3819588792512,472.3724277038227,1 45404U 20019AW  26090.83508220  .00071946  00000+0  23233-2 0  9995,2 45404  53.1598  26.3306 0001453 135.2951 224.8168 15.31486268333362
STARLINK-1263,45405,53.1624,8.78e-05,15.30190809,474.6407855048219,475.8442389471693,1 45405U 20019AX  26090.82786718 -.00000852  00000+0 -16673-4 0  9997,2 45405  53.1624  26.4401 0000878  92.4018 267.7083 15.30190809333362
